ONEWEB-0220             
1 48232U 21031Y   23252.49036394 -.00000216  00000+0 -61701-3 0  9996
2 48232  87.9012 131.1083 0001767  64.2403 295.8909 13.14502453115495
ONEWEB-0165             
1 48233U 21031Z   23252.59610054  .00000042  00000+0  79427-4 0  9999
2 48233  87.9010 131.0999 0001868  69.9107 290.2224 13.14504651115462
ONEWEB-0199             
1 48234U 21031AA  23252.42694803  .00000251  00000+0  64335-3 0  9999
2 48234  87.9010 131.1056 0001839  71.9993 288.1337 13.14500623115345
ONEWEB-0203             
1 48235U 21031AB  23252.49250446  .00000159  00000+0  39348-3 0  9991
2 48235  87.9009 131.0914 0002096  83.9479 276.1890 13.14501672115362
ONEWEB-0197             
1 48236U 21031AC  23252.40354469  .00000012  00000+0 -25632-5 0  9995
2 48236  87.9009 131.1180 0001538  78.3011 281.8292 13.14505656115263
ONEWEB-0194             
1 48237U 21031AD  23252.37197739  .00000009  00000+0 -10029-4 0  9996
2 48237  87.9010 131.1135 0001965  87.9512 272.1842 13.14504443115438
ONEWEB-0193             
1 48238U 21031AE  23252.54113210 -.00000195  00000+0 -56003-3 0  9996
2 48238  87.9010 131.0891 0002042  73.9456 286.1898 13.14500701115402
ONEWEB-0191             
1 48239U 21031AF  23252.39946647 -.00000118  00000+0 -35319-3 0  9990
2 48239  87.9009 131.0964 0001943  78.0276 282.1071 13.14501188115248
